COMMENT,ORIGINATOR,NORAD_CAT_ID,OBJECT_NAME,OBJECT_TYPE,CLASSIFICATION_TYPE,INTLDES,EPOCH,EPOCH_MICROSECONDS,MEAN_MOTION,ECCENTRICITY,INCLINATION,RA_OF_ASC_NODE,ARG_OF_PERICENTER,MEAN_ANOMALY,EPHEMERIS_TYPE,ELEMENT_SET_NO,REV_AT_EPOCH,BSTAR,MEAN_MOTION_DOT,MEAN_MOTION_DDOT,FILE,TLE_LINE0,TLE_LINE1,TLE_LINE2,OBJECT_ID,OBJECT_NUMBER,SEMIMAJOR_AXIS,PERIOD,APOGEE,PERIGEE
"GENERATED VIA SPACETRACK.ORG API","JSPOC","25637","DELTA 2 R/B","ROCKET BODY","U","99008D","2016-01-11 12:14:53","890944","14.4637778","0.0143955","96.4492","28.5935","143.3527","334.061","0","999","89005","3.2741e-05","1.04e-06","0","1978919","0 DELTA 2 R/B","1 25637U 99008D   16011.51034596  .00000104  00000-0  32741-4 0  9997","2 25637  96.4492  28.5935 0143955 143.3527 334.0610 14.46377780890059","1999-008D","25637","7115.640","99.559","839.938","635.072"
"GENERATED VIA SPACETRACK.ORG API","JSPOC","38861","SJ-9B","PAYLOAD","U","12056B","2016-01-11 12:14:54","394656","14.80677274","0.0019948","97.8839","89.5645","107.9393","252.3999","0","999","17505","8.1425e-05","5.75e-06","0","1978946","0 SJ-9B","1 38861U 12056B   16011.51035179  .00000575  00000-0  81425-4 0  9991","2 38861  97.8839  89.5645 0019948 107.9393 252.3999 14.80677274175055","2012-056B","38861","7005.324","97.252","641.163","613.214"
"GENERATED VIA SPACETRACK.ORG API","JSPOC","25525","SL-12 R/B(2)","ROCKET BODY","U","98065D","2016-01-11 12:14:54","493152","1.88161775","0.5210595","17.081","161.7172","193.7492","121.9208","0","999","11813","0","-6.2e-07","0","1978952","0 SL-12 R/B(2)","1 25525U 98065D   16011.51035293 -.00000062  00000-0  00000+0 0  9992","2 25525  17.0810 161.7172 5210595 193.7492 121.9208  1.88161775118136","1998-065D","25525","27714.959","765.298","35777.966","6895.681"
"GENERATED VIA SPACETRACK.ORG API","JSPOC","21305","SL-14 R/B","ROCKET BODY","U","91033G","2016-01-11 12:14:56","412096","12.54795967","0.0036712","82.567","309.7637","256.0104","151.7063","0","999","12942","-1.5731e-05","7e-08","0","1978895","0 SL-14 R/B","1 21305U 91033G   16011.51037514  .00000007  00000-0 -15731-4 0  9991","2 21305  82.5670 309.7637 0036712 256.0104 151.7063 12.54795967129429","1991-033G","21305","7822.635","114.759","1473.219","1415.782"
"GENERATED VIA SPACETRACK.ORG API","JSPOC","19649","COSMOS 1980","PAYLOAD","U","88102A","2016-01-11 12:14:57","579360","14.14632641","0.0004789","71.0014","82.8305","2.8388","357.2761","0","999","40065","0.00018175","3.02e-06","0","1978956","0 COSMOS 1980","1 19649U 88102A   16011.51038865  .00000302  00000-0  18175-3 0  9993","2 19649  71.0014  82.8305 0004789   2.8388 357.2761 14.14632641400655","1988-102A","19649","7221.699","101.793","847.022","840.105"
"GENERATED VIA SPACETRACK.ORG API","JSPOC","13271","COSMOS 1378","PAYLOAD","U","82059A","2016-01-11 12:15:06","126912","15.19597324","0.0006556","82.466","13.4783","330.5966","144.7893","0","999","83051","0.00013305","2.864e-05","0","1978999","0 COSMOS 1378","1 13271U 82059A   16011.51048758  .00002864  00000-0  13305-3 0  9990","2 13271  82.4660  13.4783 0006556 330.5966 144.7893 15.19597324830511","1982-059A","13271","6885.193","94.761","511.572","502.544"
"GENERATED VIA SPACETRACK.ORG API","JSPOC","6275","OPS 7323 (DMSP 5B F3)","PAYLOAD","U","72089A","2016-01-11 12:15:12","298464","14.27597682","0.00357","98.6223","226.403","356.1637","3.9265","0","999","24111","6.003e-05","1.05e-06","0","1978925","0 OPS 7323 (DMSP 5B F3)","1 06275U 72089A   16011.51055901  .00000105  00000-0  60030-4 0  9990","2 06275  98.6223 226.4030 0035700 356.1637   3.9265 14.27597682241110","1972-089A","6275","7177.909","100.868","825.399","774.148"
"GENERATED VIA SPACETRACK.ORG API","JSPOC","11128","COSMOS 1051","PAYLOAD","U","78109A","2016-01-11 12:15:20","546208","12.55909122","0.0057782","74.0166","137.3513","53.7086","77.0562","0","999","70104","-1.9028e-05","-1.9e-07","0","1978885","0 COSMOS 1051","1 11128U 78109A   16011.51065447 -.00000019  00000-0 -19028-4 0  9995","2 11128  74.0166 137.3513 0057782  53.7086  77.0562 12.55909122701045","1978-109A","11128","7818.012","114.657","1485.051","1394.703"
"GENERATED VIA SPACETRACK.ORG API","JSPOC","23003","COSMOS 2272","PAYLOAD","U","94011E","2016-01-11 12:15:21","278880","12.6430893","0.0011959","82.5694","213.4716","176.9555","183.1612","0","999","1126","8.5168e-05","2.6e-07","0","1978951","0 COSMOS 2272","1 23003U 94011E   16011.51066295  .00000026  00000-0  85168-4 0  9996","2 23003  82.5694 213.4716 0011959 176.9555 183.1612 12.64308930 11269","1994-011E","23003","7783.346","113.896","1414.519","1395.903"
"GENERATED VIA SPACETRACK.ORG API","JSPOC","40299","HODOYOSHI 1","PAYLOAD","U","14070B","2016-01-11 12:15:35","387136","15.20595856","0.001505","97.4431","95.4469","119.9784","6.1397","0","999","6546","0.00011622","2.484e-05","0","1978904","0 HODOYOSHI 1","1 40299U 14070B   16011.51082624  .00002484  00000-0  11622-3 0  9996","2 40299  97.4431  95.4469 0015050 119.9784   6.1397 15.20595856 65464","2014-070B","40299","6882.179","94.699","514.401","493.686"
"GENERATED VIA SPACETRACK.ORG API","JSPOC","40261","SJ-11-07","PAYLOAD","U","14059A","2016-01-11 12:15:43","308288","14.60507637","0.0012831","98.0955","99.4187","182.9981","177.1144","0","999","6862","4.9827e-05","1.96e-06","0","1978952","0 SJ-11-07","1 40261U 14059A   16011.51091792  .00000196  00000-0  49827-4 0  9995","2 40261  98.0955  99.4187 0012831 182.9981 177.1144 14.60507637 68628","2014-059A","40261","7069.672","98.595","700.608","682.466"
"GENERATED VIA SPACETRACK.ORG API","JSPOC","22308","SL-8 R/B","ROCKET BODY","U","93001B","2016-01-11 12:15:47","560032","13.75652854","0.0022683","82.933","196.3003","220.163","157.3791","0","999","15444","0.00013757","1.48e-06","0","1978942","0 SL-8 R/B","1 22308U 93001B   16011.51096713  .00000148  00000-0  13757-3 0  9998","2 22308  82.9330 196.3003 0022683 220.1630 157.3791 13.75652854154446","1993-001B","22308","7357.483","104.677","996.037","962.659"
"GENERATED VIA SPACETRACK.ORG API","JSPOC","25461","ARIANE 44P R/B","ROCKET BODY","U","98049B","2016-01-11 12:15:50","700672","3.20138358","0.6598414","4.1626","133.6304","142.1331","290.4235","0","999","17146","0.002374","0.00019317","0","1978883","0 ARIANE 44P R/B","1 25461U 98049B   16011.51100348  .00019317  00000-0  23740-2 0  9998","2 25461   4.1626 133.6304 6598414 142.1331 290.4235  3.20138358171468","1998-049B","25461","19446.585","449.805","25900.113","236.788"
"GENERATED VIA SPACETRACK.ORG API","JSPOC","20452","NAVSTAR 18 (USA 50)","PAYLOAD","U","90008A","2016-01-11 12:15:52","63200","1.89597281","0.0012665","55.2826","267.3288","235.3015","317.6512","0","999","18401","0","2.5e-07","0","1978941","0 NAVSTAR 18 (USA 50)","1 20452U 90008A   16011.51101925  .00000025  00000-0  00000+0 0  9999","2 20452  55.2826 267.3288 0012665 235.3015 317.6512  1.89597281184017","1990-008A","20452","27574.888","759.504","21231.677","21161.830"
"GENERATED VIA SPACETRACK.ORG API","JSPOC","20452","NAVSTAR 18 (USA 50)","PAYLOAD","U","90008A","2016-01-11 12:15:52","63200","1.89597281","0.0012665","55.2826","267.3288","235.3015","317.6512","0","999","18401","0","2.5e-07","0","1979017","0 NAVSTAR 18 (USA 50)","1 20452U 90008A   16011.51101925  .00000025  00000-0  00000+0 0  9999","2 20452  55.2826 267.3288 0012665 235.3015 317.6512  1.89597281184017","1990-008A","20452","27574.888","759.504","21231.677","21161.830"
"GENERATED VIA SPACETRACK.ORG API","JSPOC","23343","SL-16 R/B","ROCKET BODY","U","94074B","2016-01-11 12:15:53","177760","14.76622386","0.0005938","98.2072","35.5514","315.7083","166.8881","0","999","13969","1.8912e-05","7.8e-07","0","1978946","0 SL-16 R/B","1 23343U 94074B   16011.51103215  .00000078  00000-0  18912-4 0  9996","2 23343  98.2072  35.5514 0005938 315.7083 166.8881 14.76622386139691","1994-074B","23343","7018.142","97.519","644.175","635.840"
"GENERATED VIA SPACETRACK.ORG API","JSPOC","36102","BREEZE-M R/B","ROCKET BODY","U","09065B","2016-01-11 12:15:53","320320","2.20876285","0.5903064","20.5692","224.4494","42.0619","289.5475","0","999","4924","0","-1.9e-07","0","1979502","0 BREEZE-M R/B","1 36102U 09065B   16011.51103380 -.00000019 +00000-0 +00000-0 0  9993","2 36102 020.5692 224.4494 5903064 042.0619 289.5475 02.20876285049245","2009-065B","36102","24905.911","651.948","33229.896","3825.657"
"GENERATED VIA SPACETRACK.ORG API","JSPOC","8896","COSMOS 832","PAYLOAD","U","76054H","2016-01-11 12:15:55","538208","12.41274747","0.0024191","74.0007","265.4133","154.1615","271.492","0","999","79336","0.00021685","1.4e-07","0","1978884","0 COSMOS 832","1 08896U 76054H   16011.51105947  .00000014  00000-0  21685-3 0  9994","2 08896  74.0007 265.4133 0024191 154.1615 271.4920 12.41274747793367","1976-054H","8896","7879.340","116.009","1520.266","1482.145"
"GENERATED VIA SPACETRACK.ORG API","JSPOC","27953","BLOCK DM-SL R/B","ROCKET BODY","U","03044B","2016-01-11 12:16:18","116256","2.14421256","0.6582593","0.2655","54.6788","354.2675","26.5633","0","999","9621","0","-3.6e-07","0","1978895","0 BLOCK DM-SL R/B","1 27953U 03044B   16011.51132079 -.00000036  00000-0  00000+0 0  9993","2 27953   0.2655  54.6788 6582593 354.2675  26.5633  2.14421256 96214","2003-044B","27953","25403.289","671.575","35747.105","2303.202"
"GENERATED VIA SPACETRACK.ORG API","JSPOC","20826","METEOR 2-20","PAYLOAD","U","90086A","2016-01-11 12:16:28","903296","13.84202323","0.0012006","82.5251","353.1221","275.5398","204.9807","0","999","27744","6.3619e-06","2.2e-07","0","1978938","0 METEOR 2-20","1 20826U 90086A   16011.51144564  .00000022  00000-0  63619-5 0  9994","2 20826  82.5251 353.1221 0012006 275.5398 204.9807 13.84202323277440","1990-086A","20826","7327.156","104.031","957.818","940.224"
